NORAD_CAT_ID,OBJECT_NAME,OBJECT_TYPE,EPOCH,MEAN_MOTION,ECCENTRICITY,INCLINATION,RA_OF_ASC_NODE,ARG_OF_PERICENTER,MEAN_ANOMALY,BSTAR,MEAN_MOTION_DOT,MEAN_MOTION_DDOT,TLE_LINE0,TLE_LINE1,TLE_LINE2,SEMIMAJOR_AXIS,PERIOD,APOGEE,PERIGEE,DECAYED
55777.0,STARLINK-5814,PAYLOAD,2023-09-25 21:19:01,14.98333153,0.0003042,70.0012,322.9711,267.6743,92.4068,-2.2167e-05,-3.57e-06,0.0,0 STARLINK-5814,1 55777U 23028AN  23268.88821654 -.00000357  00000-0 -22167-4 0  9998,2 55777  70.0012 322.9711 0003042 267.6743  92.4068 14.98333153 32354,6950.183,96.107,574.162,569.934,0.0
55777.0,STARLINK-5814,PAYLOAD,2023-09-26 10:08:06,14.98324094,0.0003116,70.0008,321.6246,261.5988,98.4817,-4.3165e-05,-6.08e-06,0.0,0 STARLINK-5814,1 55777U 23028AN  23269.42230324 -.00000608  00000-0 -43165-4 0  9997,2 55777  70.0008 321.6246 0003116 261.5988  98.4817 14.98324094 32435,6950.211,96.107,574.242,569.91,0.0
55777.0,STARLINK-5814,PAYLOAD,2023-09-26 13:20:22,14.98327185,0.0003037,70.0011,321.2885,258.2565,101.8253,1.7443e-06,-7.2e-07,0.0,0 STARLINK-5814,1 55777U 23028AN  23269.55582019 -.00000072  00000-0  17443-5 0  9997,2 55777  70.0011 321.2885 0003037 258.2565 101.8253 14.98327185 32459,6950.202,96.107,574.177,569.956,0.0
55777.0,STARLINK-5814,PAYLOAD,2023-09-27 02:09:27,14.98333648,0.0003131,70.0002,319.9401,260.5184,99.5621,-3.4119e-05,-5e-06,0.0,0 STARLINK-5814,1 55777U 23028AN  23270.08989722 -.00000500  00000-0 -34119-4 0  9994,2 55777  70.0002 319.9401 0003131 260.5184  99.5621 14.98333648 32537,6950.182,96.107,574.223,569.871,0.0
55777.0,STARLINK-5814,PAYLOAD,2023-09-27 11:46:15,14.9833282,0.0003269,69.9999,318.9307,268.1121,91.9664,1.522e-05,8.9e-07,0.0,0 STARLINK-5814,1 55777U 23028AN  23270.49045602  .00000089  00000-0  15220-4 0  9991,2 55777  69.9999 318.9307 0003269 268.1121  91.9664 14.98332820 32590,6950.184,96.107,574.321,569.777,0.0
55777.0,STARLINK-5814,PAYLOAD,2023-09-28 11:48:17,14.98325948,0.0002989,70.0005,316.4059,267.1415,92.9402,-5.0152e-05,-6.91e-06,0.0,0 STARLINK-5814,1 55777U 23028AN  23271.49186361 -.00000691  00000-0 -50152-4 0  9994,2 55777  70.0005 316.4059 0002989 267.1415  92.9402 14.98325948 32742,6950.205,96.107,574.148,569.993,0.0
55777.0,STARLINK-5814,PAYLOAD,2023-09-28 13:24:25,14.98325795,0.0002994,70.0005,316.2374,267.3965,92.6851,-5.1024e-05,-7.02e-06,0.0,0 STARLINK-5814,1 55777U 23028AN  23271.55862388 -.00000702  00000-0 -51024-4 0  9993,2 55777  70.0005 316.2374 0002994 267.3965  92.6851 14.98325795 32754,6950.206,96.107,574.152,569.99,0.0
55777.0,STARLINK-5814,PAYLOAD,2023-09-29 10:14:09,14.98331143,0.0003048,70.0001,314.0489,268.17,91.911,1.7423e-05,1.15e-06,0.0,0 STARLINK-5814,1 55777U 23028AN  23272.42649881  .00000115  00000-0  17423-4 0  9992,2 55777  70.0001 314.0489 0003048 268.1700  91.9110 14.98331143 32888,6950.189,96.107,574.173,569.936,0.0
55777.0,STARLINK-5814,PAYLOAD,2023-09-29 13:26:25,14.9833313,0.0003045,70.0001,313.7121,268.6487,91.4323,3.7143e-05,3.5e-06,0.0,0 STARLINK-5814,1 55777U 23028AN  23272.56001685  .00000350  00000-0  37143-4 0  9993,2 55777  70.0001 313.7121 0003045 268.6487  91.4323 14.98333130 32903,6950.183,96.107,574.165,569.932,0.0
55777.0,STARLINK-5814,PAYLOAD,2023-09-30 05:27:46,14.98330506,0.0003115,69.9997,312.0283,270.9006,89.1796,6.8415e-05,7.23e-06,0.0,0 STARLINK-5814,1 55777U 23028AN  23273.22761656  .00000723  00000-0  68415-4 0  9998,2 55777  69.9997 312.0283 0003115 270.9006  89.1796 14.98330506 33000,6950.191,96.107,574.221,569.891,0.0
55777.0,STARLINK-5814,PAYLOAD,2023-09-30 10:16:10,14.98332262,0.0003059,69.9998,311.5233,269.5971,90.4838,8.7294e-05,9.49e-06,0.0,0 STARLINK-5814,1 55777U 23028AN  23273.42789461  .00000949  00000-0  87294-4 0  9990,2 55777  69.9998 311.5233 0003059 269.5971  90.4838 14.98332262 33038,6950.186,96.107,574.177,569.925,0.0
55777.0,STARLINK-5814,PAYLOAD,2023-10-01 10:18:11,14.98332547,0.0002927,70.0,308.999,268.6202,91.4622,-2.4128e-06,-1.22e-06,0.0,0 STARLINK-5814,1 55777U 23028AN  23274.42929483 -.00000122  00000-0 -24128-5 0  9994,2 55777  70.0000 308.9990 0002927 268.6202  91.4622 14.98332547 33189,6950.185,96.107,574.084,570.016,0.0
55777.0,STARLINK-5814,PAYLOAD,2023-10-01 11:54:19,14.98332022,0.0002935,69.9999,308.8307,268.5667,91.5156,-9.2439e-06,-2.03e-06,0.0,0 STARLINK-5814,1 55777U 23028AN  23274.49605517 -.00000203  00000-0 -92439-5 0  9990,2 55777  69.9999 308.8307 0002935 268.5667  91.5156 14.98332022 33199,6950.187,96.107,574.092,570.012,0.0
55777.0,STARLINK-5814,PAYLOAD,2023-10-01 19:55:00,14.98307334,0.0002811,69.9999,307.9899,278.4112,81.6728,0.00031685,3.687e-05,0.0,0 STARLINK-5814,1 55777U 23028AN  23274.82986479  .00003687  00000-0  31685-3 0  9997,2 55777  69.9999 307.9899 0002811 278.4112  81.6728 14.98307334 33242,6950.263,96.108,574.082,570.174,0.0
55777.0,STARLINK-5814,PAYLOAD,2023-10-02 02:19:32,14.98327291,0.0002931,69.9997,307.316,269.1946,90.8878,-8.9912e-05,-1.166e-05,0.0,0 STARLINK-5814,1 55777U 23028AN  23275.09690004 -.00001166  00000-0 -89912-4 0  9992,2 55777  69.9997 307.3160 0002931 269.1946  90.8878 14.98327291 33286,6950.201,96.107,574.103,570.029,0.0
55777.0,STARLINK-5814,PAYLOAD,2023-10-02 19:57:00,14.98326761,0.0002953,69.9995,305.4643,269.5585,90.5236,-6.6833e-05,-8.9e-06,0.0,0 STARLINK-5814,1 55777U 23028AN  23275.83126118 -.00000890  00000-0 -66833-4 0  9994,2 55777  69.9995 305.4643 0002953 269.5585  90.5236 14.98326761 33394,6950.203,96.107,574.12,570.016,0.0
55777.0,STARLINK-5814,PAYLOAD,2023-10-03 03:57:40,14.98331378,0.0003101,69.9989,304.6214,270.3583,89.722,4.4155e-05,4.34e-06,0.0,0 STARLINK-5814,1 55777U 23028AN  23276.16505442  .00000434  00000-0  44155-4 0  9997,2 55777  69.9989 304.6214 0003101 270.3583  89.7220 14.98331378 33445,6950.189,96.107,574.209,569.898,0.0
55777.0,STARLINK-5814,PAYLOAD,2023-10-03 11:58:21,14.98329778,0.0003191,69.9988,303.7803,271.6181,88.4612,-2.6638e-05,-4.11e-06,0.0,0 STARLINK-5814,1 55777U 23028AN  23276.49885750 -.00000411  00000-0 -26638-4 0  9999,2 55777  69.9988 303.7803 0003191 271.6181  88.4612 14.98329778 33492,6950.194,96.107,574.276,569.841,0.0
55777.0,STARLINK-5814,PAYLOAD,2023-10-04 10:24:15,14.98311822,0.0003145,69.9989,301.4234,271.8683,88.2116,-7.7172e-05,-1.013e-05,0.0,0 STARLINK-5814,1 55777U 23028AN  23277.43351715 -.00001013  00000-0 -77172-4 0  9991,2 55777  69.9989 301.4234 0003145 271.8683  88.2116 14.98311822 33638,6950.249,96.108,574.3,569.928,0.0
55777.0,STARLINK-5814,PAYLOAD,2023-10-04 12:00:23,14.98314839,0.0003127,69.999,301.255,271.9252,88.1549,-4.2958e-05,-6.05e-06,0.0,0 STARLINK-5814,1 55777U 23028AN  23277.50027512 -.00000605  00000-0 -42958-4 0  9994,2 55777  69.9990 301.2550 0003127 271.9252  88.1549 14.98314839 33643,6950.24,96.108,574.278,569.931,0.0
55777.0,STARLINK-5814,PAYLOAD,2023-10-04 18:24:55,14.98321824,0.0003161,69.9989,300.5818,271.8684,88.2113,4.3934e-06,-4.1e-07,0.0,0 STARLINK-5814,1 55777U 23028AN  23277.76731135 -.00000041  00000-0  43934-5 0  9994,2 55777  69.9989 300.5818 0003161 271.8684  88.2113 14.98321824 33680,6950.218,96.108,574.28,569.886,0.0
55777.0,STARLINK-5814,PAYLOAD,2023-10-05 02:25:35,14.98329835,0.0003131,69.9989,299.74,272.4937,87.5864,1.5213e-05,8.8e-07,0.0,0 STARLINK-5814,1 55777U 23028AN  23278.10110721  .00000088  00000-0  15213-4 0  9993,2 55777  69.9989 299.7400 0003131 272.4937  87.5864 14.98329835 33732,6950.193,96.107,574.235,569.882,0.0
55777.0,STARLINK-5814,PAYLOAD,2023-10-05 12:02:23,14.98332781,0.0003084,69.9991,298.7299,273.2272,86.8534,7.1671e-05,7.62e-06,0.0,0 STARLINK-5814,1 55777U 23028AN  23278.50166404  .00000762  00000-0  71671-4 0  9995,2 55777  69.9991 298.7299 0003084 273.2272  86.8534 14.98332781 33794,6950.184,96.107,574.193,569.906,0.0
55777.0,STARLINK-5814,PAYLOAD,2023-10-05 18:26:55,14.98337164,0.0003089,69.9991,298.0567,272.3342,87.7463,4.0808e-05,3.94e-06,0.0,0 STARLINK-5814,1 55777U 23028AN  23278.76870154  .00000394  00000-0  40808-4 0  9996,2 55777  69.9991 298.0567 0003089 272.3342  87.7463 14.98337164 33834,6950.171,96.107,574.183,569.889,0.0
55777.0,STARLINK-5814,PAYLOAD,2023-10-06 12:04:23,14.98339824,0.000317,69.9985,296.205,271.1297,88.9499,0.00019157,2.194e-05,0.0,0 STARLINK-5814,1 55777U 23028AN  23279.50305473  .00002194  00000-0  19157-3 0  9998,2 55777  69.9985 296.2050 0003170 271.1297  88.9499 14.98339824 33940,6950.163,96.106,574.231,569.824,0.0
55777.0,STARLINK-5814,PAYLOAD,2023-10-06 23:17:21,14.9832989,0.0002899,69.9995,295.0267,269.6475,90.4352,0.00010743,1.189e-05,0.0,0 STARLINK-5814,1 55777U 23028AN  23279.97038213  .00001189  00000-0  10743-3 0  9999,2 55777  69.9995 295.0267 0002899 269.6475  90.4352 14.98329890 34012,6950.193,96.107,574.073,570.043,0.0
55777.0,STARLINK-5814,PAYLOAD,2023-10-07 10:30:16,14.98338977,0.0003197,69.9986,293.848,267.7557,92.3236,-4.4915e-06,-1.47e-06,0.0,0 STARLINK-5814,1 55777U 23028AN  23280.43769634 -.00000147  00000-0 -44915-5 0  9995,2 55777  69.9986 293.8480 0003197 267.7557  92.3236 14.98338977 34082,6950.165,96.106,574.252,569.808,0.0
55777.0,STARLINK-5814,PAYLOAD,2023-10-07 18:30:57,14.98335168,0.0003115,69.9988,293.0063,270.2424,89.8378,-6.7505e-05,-8.99e-06,0.0,0 STARLINK-5814,1 55777U 23028AN  23280.77149911 -.00000899  00000-0 -67505-4 0  9995,2 55777  69.9988 293.0063 0003115 270.2424  89.8378 14.98335168 34138,6950.177,96.107,574.207,569.877,0.0
55777.0,STARLINK-5814,PAYLOAD,2023-10-08 02:31:38,14.98331112,0.0003162,69.9987,292.1641,269.3082,90.7715,-0.00011182,-1.427e-05,0.0,0 STARLINK-5814,1 55777U 23028AN  23281.10530160 -.00001427  00000-0 -11182-3 0  9990,2 55777  69.9987 292.1641 0003162 269.3082  90.7715 14.98331112 34186,6950.189,96.107,574.252,569.857,0.0
55777.0,STARLINK-5814,PAYLOAD,2023-10-08 10:32:18,14.98332461,0.000302,69.9989,291.3227,266.4707,93.6107,-5.2924e-05,-7.24e-06,0.0,0 STARLINK-5814,1 55777U 23028AN  23281.43909842 -.00000724  00000-0 -52924-4 0  9992,2 55777  69.9989 291.3227 0003020 266.4707  93.6107 14.98332461 34235,6950.185,96.107,574.149,569.951,0.0
